NORAD_CAT_ID,OBJECT_NAME,OBJECT_TYPE,EPOCH,MEAN_MOTION,ECCENTRICITY,INCLINATION,RA_OF_ASC_NODE,ARG_OF_PERICENTER,MEAN_ANOMALY,BSTAR,MEAN_MOTION_DOT,MEAN_MOTION_DDOT,TLE_LINE0,TLE_LINE1,TLE_LINE2,SEMIMAJOR_AXIS,PERIOD,APOGEE,PERIGEE,DECAYED
53932.0,STARLINK-4772,PAYLOAD,2023-06-03 09:26:40,15.08840158,0.0001099,53.2157,154.6078,78.1974,281.9142,5.8584e-05,6.45e-06,0.0,0 STARLINK-4772,1 53932U 22119AY  23154.39352391  .00000645  00000-0  58584-4 0  9996,2 53932  53.2157 154.6078 0001099  78.1974 281.9142 15.08840158 39529,6917.88,95.438,540.505,538.985,0.0
53932.0,STARLINK-4772,PAYLOAD,2023-06-03 17:23:36,15.08838848,0.0001072,53.2154,153.1212,77.6127,282.4985,4.2962e-05,3.96e-06,0.0,0 STARLINK-4772,1 53932U 22119AY  23154.72472497  .00000396  00000-0  42962-4 0  9999,2 53932  53.2154 153.1212 0001072  77.6127 282.4985 15.08838848 39147,6917.884,95.438,540.491,539.007,0.0
53932.0,STARLINK-4772,PAYLOAD,2023-06-04 06:06:41,15.08839871,0.0001096,53.2154,150.7424,78.0841,282.0274,3.3607e-05,2.47e-06,0.0,0 STARLINK-4772,1 53932U 22119AY  23155.25464500  .00000247  00000-0  33607-4 0  9995,2 53932  53.2154 150.7424 0001096  78.0841 282.0274 15.08839871 39659,6917.881,95.438,540.504,538.988,0.0
53932.0,STARLINK-4772,PAYLOAD,2023-06-05 04:22:04,15.08842001,0.0001103,53.2156,146.579,78.2602,281.8514,5.8103e-05,6.37e-06,0.0,0 STARLINK-4772,1 53932U 22119AY  23156.18200205  .00000637  00000-0  58103-4 0  9999,2 53932  53.2156 146.5790 0001103  78.2602 281.8514 15.08842001 39367,6917.874,95.437,540.502,538.976,0.0
53932.0,STARLINK-4772,PAYLOAD,2023-06-05 05:57:28,15.088427,0.0001093,53.2156,146.2813,79.5687,280.5428,6.3341e-05,7.2e-06,0.0,0 STARLINK-4772,1 53932U 22119AY  23156.24824128  .00000720  00000-0  63341-4 0  9995,2 53932  53.2156 146.2813 0001093  79.5687 280.5428 15.08842700 39800,6917.872,95.437,540.493,538.981,0.0
53932.0,STARLINK-4772,PAYLOAD,2023-06-06 08:59:01,15.08838149,0.0001132,53.2155,141.2263,80.0507,280.0612,3.1041e-05,2.06e-06,0.0,0 STARLINK-4772,1 53932U 22119AY  23157.37432561  .00000206  00000-0  31041-4 0  9997,2 53932  53.2155 141.2263 0001132  80.0507 280.0612 15.08838149 39548,6917.886,95.438,540.534,538.968,0.0
53932.0,STARLINK-4772,PAYLOAD,2023-06-07 05:39:02,15.08841709,0.000113,53.2158,137.36,80.4092,279.7028,2.6036e-05,1.27e-06,0.0,0 STARLINK-4772,1 53932U 22119AY  23158.23544430  .00000127  00000-0  26036-4 0  9992,2 53932  53.2158 137.3600 0001130  80.4092 279.7028 15.08841709 40109,6917.875,95.437,540.522,538.958,0.0
53932.0,STARLINK-4772,PAYLOAD,2023-06-07 21:32:54,15.08835226,0.0001107,53.2155,134.3886,86.9305,273.1814,2.3687e-05,8.9e-07,0.0,0 STARLINK-4772,1 53932U 22119AY  23158.89784968  .00000089  00000-0  23687-4 0  9992,2 53932  53.2155 134.3886 0001107  86.9305 273.1814 15.08835226 40200,6917.895,95.438,540.526,538.994,0.0
53932.0,STARLINK-4772,PAYLOAD,2023-06-08 08:40:36,15.08838139,0.0001143,53.2156,132.3057,81.9513,278.1609,4.6038e-05,4.45e-06,0.0,0 STARLINK-4772,1 53932U 22119AY  23159.36152870  .00000445  00000-0  46038-4 0  9997,2 53932  53.2156 132.3057 0001143  81.9513 278.1609 15.08838139 40275,6917.886,95.438,540.542,538.96,0.0
53932.0,STARLINK-4772,PAYLOAD,2023-06-08 15:02:08,15.08835961,0.0001148,53.2155,131.1162,83.7874,276.3249,2.7652e-05,1.52e-06,0.0,0 STARLINK-4772,1 53932U 22119AY  23159.62649113  .00000152  00000-0  27652-4 0  9993,2 53932  53.2155 131.1162 0001148  83.7874 276.3249 15.08835961 40318,6917.893,95.438,540.552,538.964,0.0
53932.0,STARLINK-4772,PAYLOAD,2023-06-09 05:20:36,15.08843436,0.0001107,53.2152,128.4394,86.432,273.6798,1.1617e-05,-1.03e-06,0.0,0 STARLINK-4772,1 53932U 22119AY  23160.22264812 -.00000103  00000-0  11617-4 0  9991,2 53932  53.2152 128.4394 0001107  86.4320 273.6798 15.08843436 39977,6917.87,95.437,540.501,538.969,0.0
53932.0,STARLINK-4772,PAYLOAD,2023-06-09 14:52:55,15.08836225,0.00011,53.2151,126.6553,86.3198,273.792,4.5666e-05,4.39e-06,0.0,0 STARLINK-4772,1 53932U 22119AY  23160.62009217  .00000439  00000-0  45666-4 0  9993,2 53932  53.2151 126.6553 0001100  86.3198 273.7920 15.08836225 40033,6917.892,95.438,540.518,538.996,0.0
53932.0,STARLINK-4772,PAYLOAD,2023-06-09 21:14:28,15.08833588,0.0001152,53.2155,125.4657,89.2323,270.8801,1.3789e-05,-6.8e-07,0.0,0 STARLINK-4772,1 53932U 22119AY  23160.88505593 -.00000068  00000-0  13789-4 0  9999,2 53932  53.2155 125.4657 0001152  89.2323 270.8801 15.08833588 40505,6917.9,95.438,540.562,538.968,0.0
53932.0,STARLINK-4772,PAYLOAD,2023-06-10 06:46:47,15.08838104,0.0001202,53.216,123.6817,88.9109,271.2021,4.6196e-05,4.47e-06,0.0,0 STARLINK-4772,1 53932U 22119AY  23161.28249357  .00000447  00000-0  46196-4 0  9995,2 53932  53.2160 123.6817 0001202  88.9109 271.2021 15.08838104 40567,6917.886,95.438,540.583,538.92,0.0
53932.0,STARLINK-4772,PAYLOAD,2023-06-10 19:29:52,15.08835588,0.0001285,53.2161,121.3023,88.4705,271.6434,3.3417e-05,2.44e-06,0.0,0 STARLINK-4772,1 53932U 22119AY  23161.81241734  .00000244  00000-0  33417-4 0  9992,2 53932  53.2161 121.3023 0001285  88.4705 271.6434 15.08835588 40644,6917.894,95.438,540.648,538.87,0.0
53932.0,STARLINK-4772,PAYLOAD,2023-06-11 03:26:48,15.088403,0.0001282,53.2161,119.8159,89.6702,270.4437,4.3818e-05,4.1e-06,0.0,0 STARLINK-4772,1 53932U 22119AY  23162.14361436  .00000410  00000-0  43818-4 0  9992,2 53932  53.2161 119.8159 0001282  89.6702 270.4437 15.08840300 40269,6917.879,95.438,540.631,538.858,0.0
53932.0,STARLINK-4772,PAYLOAD,2023-06-11 06:37:34,15.08841439,0.0001315,53.2161,119.2212,88.3936,271.7207,5.8861e-05,6.49e-06,0.0,0 STARLINK-4772,1 53932U 22119AY  23162.27609345  .00000649  00000-0  58861-4 0  9998,2 53932  53.2161 119.2212 0001315  88.3936 271.7207 15.08841439 40718,6917.876,95.437,540.651,538.831,0.0
53932.0,STARLINK-4772,PAYLOAD,2023-06-11 20:56:02,15.08840395,0.0001275,53.2161,116.5448,90.1202,269.9937,0.00011895,1.606e-05,0.0,0 STARLINK-4772,1 53932U 22119AY  23162.87225196  .00001606  00000-0  11895-3 0  9991,2 53932  53.2161 116.5448 0001275  90.1202 269.9937 15.08840395 40800,6917.879,95.438,540.626,538.862,0.0
53932.0,STARLINK-4772,PAYLOAD,2023-06-12 01:42:11,15.08843696,0.0001288,53.2162,115.6529,89.4402,270.6738,0.00014126,1.961e-05,0.0,0 STARLINK-4772,1 53932U 22119AY  23163.07096909  .00001961  00000-0  14126-3 0  9996,2 53932  53.2162 115.6529 0001288  89.4402 270.6738 15.08843696 40836,6917.869,95.437,540.625,538.843,0.0
53932.0,STARLINK-4772,PAYLOAD,2023-06-12 14:25:17,15.08839344,0.0001365,53.2162,113.2752,81.9824,278.1323,4.6585e-05,4.54e-06,0.0,0 STARLINK-4772,1 53932U 22119AY  23163.60089439  .00000454  00000-0  46585-4 0  9996,2 53932  53.2162 113.2752 0001365  81.9824 278.1323 15.08839344 40488,6917.882,95.438,540.692,538.803,0.0
53932.0,STARLINK-4772,PAYLOAD,2023-06-13 03:08:22,15.08839942,0.0001408,53.2162,110.8947,96.7426,263.3727,3.3521e-05,2.46e-06,0.0,0 STARLINK-4772,1 53932U 22119AY  23164.13081429  .00000246  00000-0  33521-4 0  9991,2 53932  53.2162 110.8947 0001408  96.7426 263.3727 15.08839942 40991,6917.881,95.438,540.72,538.772,0.0
53932.0,STARLINK-4772,PAYLOAD,2023-06-13 20:37:37,15.08837511,0.000115,53.2169,107.6238,106.3786,253.7333,-1.3917e-05,-5.09e-06,0.0,0 STARLINK-4772,1 53932U 22119AY  23164.85945725 -.00000509  00000-0 -13917-4 0  9999,2 53932  53.2169 107.6238 0001150 106.3786 253.7333 15.08837511 41106,6917.888,95.438,540.549,538.957,0.0
53932.0,STARLINK-4772,PAYLOAD,2023-06-14 02:59:09,15.08840691,0.0001175,53.2171,106.4372,89.525,270.5876,-6.0099e-06,-3.83e-06,0.0,0 STARLINK-4772,1 53932U 22119AY  23165.12441587 -.00000383  00000-0 -60099-5 0  9991,2 53932  53.2171 106.4372 0001175  89.5250 270.5876 15.08840691 40718,6917.878,95.438,540.556,538.93,0.0
53932.0,STARLINK-4772,PAYLOAD,2023-06-14 04:34:32,15.08841059,0.0001232,53.2175,106.14,91.4183,268.6951,-8.6822e-06,-4.26e-06,0.0,0 STARLINK-4772,1 53932U 22119AY  23165.19065599 -.00000426  00000-0 -86822-5 0  9993,2 53932  53.2175 106.1400 0001232  91.4183 268.6951 15.08841059 41152,6917.877,95.437,540.594,538.89,0.0
53932.0,STARLINK-4772,PAYLOAD,2023-06-15 02:49:57,15.08834212,0.0001085,53.2177,101.9762,93.0959,267.0157,1.3905e-05,-6.7e-07,0.0,0 STARLINK-4772,1 53932U 22119AY  23166.11802160 -.00000067  00000-0  13905-4 0  9990,2 53932  53.2177 101.9762 0001085  93.0959 267.0157 15.08834212 40864,6917.898,95.438,540.514,539.012,0.0
53932.0,STARLINK-4772,PAYLOAD,2023-06-15 06:00:43,15.08834068,0.0001125,53.2177,101.3829,96.0292,264.0828,2.6308e-05,1.31e-06,0.0,0 STARLINK-4772,1 53932U 22119AY  23166.25050196  .00000131  00000-0  26308-4 0  9991,2 53932  53.2177 101.3829 0001125  96.0292 264.0828 15.08834068 41312,6917.899,95.438,540.542,538.985,0.0
53932.0,STARLINK-4772,PAYLOAD,2023-06-16 02:40:43,15.08840732,9.85e-05,53.2164,97.5145,89.5144,270.5961,7.312e-05,8.76e-06,0.0,0 STARLINK-4772,1 53932U 22119AY  23167.11161842  .00000876  00000-0  73120-4 0  9998,2 53932  53.2164  97.5145 0000985  89.5144 270.5961 15.08840732 41013,6917.878,95.438,540.425,539.062,0.0
53932.0,STARLINK-4772,PAYLOAD,2023-06-16 04:16:06,15.08843683,0.0001078,53.2171,97.2169,86.8775,273.234,9.2737e-05,1.189e-05,0.0,0 STARLINK-4772,1 53932U 22119AY  23167.17785650  .00001189  00000-0  92737-4 0  9996,2 53932  53.2171  97.2169 0001078  86.8775 273.2340 15.08843683 41455,6917.869,95.437,540.48,538.988,0.0
53932.0,STARLINK-4772,PAYLOAD,2023-06-17 04:06:53,15.08852133,0.0001049,53.2168,92.7564,92.9022,267.209,0.00012177,1.651e-05,0.0,0 STARLINK-4772,1 53932U 22119AY  23168.17144848  .00001651  00000-0  12177-3 0  9998,2 53932  53.2168  92.7564 0001049  92.9022 267.2090 15.08852133 41175,6917.843,95.437,540.434,538.983,0.0
53932.0,STARLINK-4772,PAYLOAD,2023-06-17 12:03:50,15.08834108,0.0001,53.2168,91.2694,95.9918,264.1188,2.314e-06,-2.51e-06,0.0,0 STARLINK-4772,1 53932U 22119AY  23168.50266269 -.00000251  00000-0  23140-5 0  9997,2 53932  53.2168  91.2694 0001000  95.9918 264.1188 15.08834108 41656,6917.898,95.438,540.455,539.072,0.0
